NORAD_CAT_ID,OBJECT_NAME,OBJECT_TYPE,EPOCH,MEAN_MOTION,ECCENTRICITY,INCLINATION,RA_OF_ASC_NODE,ARG_OF_PERICENTER,MEAN_ANOMALY,BSTAR,MEAN_MOTION_DOT,MEAN_MOTION_DDOT,TLE_LINE0,TLE_LINE1,TLE_LINE2,SEMIMAJOR_AXIS,PERIOD,APOGEE,PERIGEE,DECAYED
53536.0,STARLINK-4053,PAYLOAD,2022-11-28 09:57:51,15.07206234,0.0001902,53.2177,38.1388,42.1432,317.9705,-2.7082e-05,-6.96e-06,0.0,0 STARLINK-4053,1 53536U 22101K   22332.41518188 -.00000696  00000-0 -27082-4 0  9992,2 53536  53.2177  38.1388 0001902  42.1432 317.9705 15.07206234 15567,6922.879,95.541,546.06,543.427,0.0
53536.0,STARLINK-4053,PAYLOAD,2022-11-28 21:06:16,15.07209817,0.0001988,53.2175,36.0615,43.8522,316.2627,7.9544e-05,9.28e-06,0.0,0 STARLINK-4053,1 53536U 22101K   22332.87936012  .00000928  00000-0  79544-4 0  9998,2 53536  53.2175  36.0615 0001988  43.8522 316.2627 15.07209817 15630,6922.868,95.541,546.109,543.356,0.0
53536.0,STARLINK-4053,PAYLOAD,2022-11-29 08:14:42,15.07200832,0.0002082,53.2183,33.9832,47.3392,312.7775,3.5608e-05,2.58e-06,0.0,0 STARLINK-4053,1 53536U 22101K   22333.34355314  .00000258  00000-0  35608-4 0  9990,2 53536  53.2183  33.9832 0002082  47.3392 312.7775 15.07200832 15707,6922.895,95.541,546.202,543.319,0.0
53536.0,STARLINK-4053,PAYLOAD,2022-11-29 09:50:12,15.07201737,0.0002076,53.2182,33.6862,47.5709,312.5458,3.9326e-05,3.15e-06,0.0,0 STARLINK-4053,1 53536U 22101K   22333.40986464  .00000315  00000-0  39326-4 0  9998,2 53536  53.2182  33.6862 0002076  47.5709 312.5458 15.07201737 15715,6922.892,95.541,546.195,543.32,0.0
53536.0,STARLINK-4053,PAYLOAD,2022-11-30 03:20:34,15.07208358,0.0002031,53.219,30.4201,54.859,305.2592,6.5017e-05,7.06e-06,0.0,0 STARLINK-4053,1 53536U 22101K   22334.13929236  .00000706  00000-0  65017-4 0  9993,2 53536  53.2190  30.4201 0002031  54.8590 305.2592 15.07208358 15822,6922.871999999999,95.541,546.143,543.331,0.0
53536.0,STARLINK-4053,PAYLOAD,2022-11-30 09:42:32,15.07205079,0.000201,53.219,29.2315,55.9586,304.1596,3.0092e-05,1.74e-06,0.0,0 STARLINK-4053,1 53536U 22101K   22334.40454296  .00000174  00000-0  30092-4 0  9996,2 53536  53.2190  29.2315 0002010  55.9586 304.1596 15.07205079 15861,6922.882,95.541,546.139,543.356,0.0
53536.0,STARLINK-4053,PAYLOAD,2022-11-30 11:18:01,15.07226887,0.0001949,53.2186,28.9347,44.8937,315.2212,-0.0002588,-4.223e-05,0.0,0 STARLINK-4053,1 53536U 22101K   22334.47084948 -.00004223  00000-0 -25880-3 0  9995,2 53536  53.2186  28.9347 0001949  44.8937 315.2212 15.07226887 15873,6922.815,95.54,546.03,543.331,0.0
53536.0,STARLINK-4053,PAYLOAD,2022-12-01 12:45:51,15.07202329,0.0002194,53.2173,24.1826,42.32100000000001,317.795,1.6776e-05,-2.8e-07,0.0,0 STARLINK-4053,1 53536U 22101K   22335.53184747 -.00000028  00000-0  16776-4 0  9994,2 53536  53.2173  24.1826 0002194  42.3210 317.7950 15.07202329 16039,6922.891,95.541,546.275,543.237,0.0
53536.0,STARLINK-4053,PAYLOAD,2022-12-02 09:27:12,15.07209777,0.0002266,53.2181,20.3235,38.4593,321.656,8.7339e-05,1.046e-05,0.0,0 STARLINK-4053,1 53536U 22101K   22336.39389552  .00001046  00000-0  87339-4 0  9993,2 53536  53.2181  20.3235 0002266  38.4593 321.6560 15.07209777 16169,6922.868,95.541,546.302,543.164,0.0
53536.0,STARLINK-4053,PAYLOAD,2022-12-03 12:30:31,15.07214874,0.0002037,53.2173,15.2756,36.8828,323.2304,6.769e-05,7.47e-06,0.0,0 STARLINK-4053,1 53536U 22101K   22337.52119350  .00000747  00000-0  67690-4 0  9991,2 53536  53.2173  15.2756 0002037  36.8828 323.2304 15.07214874 16337,6922.852,95.54,546.127,543.307,0.0
53536.0,STARLINK-4053,PAYLOAD,2022-12-03 14:06:00,15.07208705,0.0001824,53.2181,14.9747,44.6744,315.4394,1.934e-05,1.1e-07,0.0,0 STARLINK-4053,1 53536U 22101K   22337.58750992  .00000011  00000-0  19340-4 0  9993,2 53536  53.2181  14.9747 0001824  44.6744 315.4394 15.07208705 16348,6922.871,95.541,545.999,543.4730000000002,0.0
53536.0,STARLINK-4053,PAYLOAD,2022-12-04 06:00:54,15.0720835,0.000197,53.217,12.0069,40.539,319.5748,4.9215e-05,4.66e-06,0.0,0 STARLINK-4053,1 53536U 22101K   22338.25062857  .00000466  00000-0  49215-4 0  9992,2 53536  53.2170  12.0069 0001970  40.5390 319.5748 15.07208350 16441,6922.871999999999,95.541,546.101,543.373,0.0
53536.0,STARLINK-4053,PAYLOAD,2022-12-04 13:58:21,15.07204633,0.0002457,53.2185,10.5276,28.9974,331.1154,-2.8653e-05,-7.200000000000001e-06,0.0,0 STARLINK-4053,1 53536U 22101K   22338.58219328 -.00000720  00000-0 -28653-4 0  9993,2 53536  53.2185  10.5276 0002457  28.9974 331.1154 15.07204633 16495,6922.884,95.541,546.45,543.048,0.0
53536.0,STARLINK-4053,PAYLOAD,2022-12-04 18:44:49,15.07202727,0.0001993,53.2183,9.633,34.6894,325.4227,1.5358e-05,-5e-07,0.0,0 STARLINK-4053,1 53536U 22101K   22338.78112918 -.00000050  00000-0  15358-4 0  9995,2 53536  53.2183   9.6330 0001993  34.6894 325.4227 15.07202727 16525,6922.889,95.541,546.134,543.375,0.0
53536.0,STARLINK-4053,PAYLOAD,2022-12-05 05:53:14,15.07212981,0.00022,53.2178,7.5549,33.5458,326.5672,2.5182e-05,1e-06,0.0,0 STARLINK-4053,1 53536U 22101K   22339.24530693  .00000100  00000-0  25182-4 0  9992,2 53536  53.2178   7.5549 0002200  33.5458 326.5672 15.07212981 16590,6922.858,95.541,546.246,543.2,0.0
53536.0,STARLINK-4053,PAYLOAD,2022-12-05 18:37:09,15.07211701,0.0002145,53.2177,5.1792,34.3544,325.7585,-4.2646e-06,-3.49e-06,0.0,0 STARLINK-4053,1 53536U 22101K   22339.77580241 -.00000349  00000-0 -42646-5 0  9996,2 53536  53.2177   5.1792 0002145  34.3544 325.7585 15.07211701 16678,6922.861999999999,95.541,546.212,543.242,0.0
53536.0,STARLINK-4053,PAYLOAD,2022-12-06 10:32:03,15.07202664,0.0002203,53.2183,2.209,38.5546,321.5602,-1.6482999999999998e-05,-5.35e-06,0.0,0 STARLINK-4053,1 53536U 22101K   22340.43892730 -.00000535  00000-0 -16483-4 0  9996,2 53536  53.2183   2.2090 0002203  38.5546 321.5602 15.07202664 16770,6922.89,95.541,546.28,543.229,0.0
53536.0,STARLINK-4053,PAYLOAD,2022-12-06 12:07:32,15.07200964,0.0002345,53.2183,1.9139,36.9549,323.1604,-1.887e-05,-5.71e-06,0.0,0 STARLINK-4053,1 53536U 22101K   22340.50524140 -.00000571  00000-0 -18870-4 0  9993,2 53536  53.2183   1.9139 0002345  36.9549 323.1604 15.07200964 16784,6922.895,95.541,546.383,543.136,0.0
53536.0,STARLINK-4053,PAYLOAD,2022-12-06 18:29:30,15.07193724,0.000214,53.2176,0.7238,38.3747,321.7396,-1.5529e-05,-5.2e-06,0.0,0 STARLINK-4053,1 53536U 22101K   22340.77049495 -.00000520  00000-0 -15529-4 0  9999,2 53536  53.2176   0.7238 0002140  38.3747 321.7396 15.07193724 16824,6922.917,95.542,546.263,543.3,0.0
53536.0,STARLINK-4053,PAYLOAD,2022-12-07 10:24:23,15.07205722,0.0002203,53.2176,357.7549,42.3435,317.7726,2.2035e-06,-2.5e-06,0.0,0 STARLINK-4053,1 53536U 22101K   22341.43360901 -.00000250  00000-0  22035-5 0  9991,2 53536  53.2176 357.7549 0002203  42.3435 317.7726 15.07205722 16928,6922.88,95.541,546.27,543.22,0.0
53536.0,STARLINK-4053,PAYLOAD,2022-12-08 00:43:47,15.07217782,0.0002315,53.2177,355.0824,42.0893,318.0276,0.000123,1.59e-05,0.0,0 STARLINK-4053,1 53536U 22101K   22342.03040626  .00001590  00000-0  12300-3 0  9996,2 53536  53.2177 355.0824 0002315  42.0893 318.0276 15.07217782 17019,6922.843000000003,95.54,546.311,543.106,0.0
53536.0,STARLINK-4053,PAYLOAD,2022-12-08 10:16:42,15.07226643,0.0002097,53.2183,353.3006,43.9758,316.14,0.00013559,1.782e-05,0.0,0 STARLINK-4053,1 53536U 22101K   22342.42826786  .00001782  00000-0  13559-3 0  9998,2 53536  53.2183 353.3006 0002097  43.9758 316.1400 15.07226643 17076,6922.816,95.54,546.133,543.229,0.0
53536.0,STARLINK-4053,PAYLOAD,2022-12-08 18:14:08,15.07226277,0.0001827,53.2191,351.8165,34.3016,325.8093,0.00022143,3.09e-05,0.0,0 STARLINK-4053,1 53536U 22101K   22342.75982214  .00003090  00000-0  22143-3 0  9996,2 53536  53.2191 351.8165 0001827  34.3016 325.8093 15.07226277 17129,6922.816999999999,95.54,545.947,543.4169999999998,0.0
53536.0,STARLINK-4053,PAYLOAD,2022-12-09 11:44:29,15.07282511,0.0001681,53.2176,348.5535,348.6933,11.402,0.00092428,0.00013843,0.0,0 STARLINK-4053,1 53536U 22101K   22343.48922738  .00013843  00000-0  92428-3 0  9992,2 53536  53.2176 348.5535 0001681 348.6933  11.4020 15.07282511 17236,6922.645,95.536,545.674,543.346,0.0
53536.0,STARLINK-4053,PAYLOAD,2022-12-09 16:31:00,15.07207584,0.000152,53.2167,347.6646,17.8022,342.3022,2.0734e-05,3.2e-07,0.0,0 STARLINK-4053,1 53536U 22101K   22343.68820220  .00000032  00000-0  20734-4 0  9995,2 53536  53.2167 347.6646 0001520  17.8022 342.3022 15.07207584 17263,6922.875,95.541,545.7919999999998,543.687,0.0
53536.0,STARLINK-4053,PAYLOAD,2022-12-10 11:36:53,15.07188975,0.0002155,53.2179,344.1002,14.7619,345.3435,-0.00033235,-5.337e-05,0.0,0 STARLINK-4053,1 53536U 22101K   22344.48395401 -.00005337  00000-0 -33235-3 0  9996,2 53536  53.2179 344.1002 0002155  14.7619 345.3435 15.07188975 17383,6922.932,95.542,546.288,543.305,0.0
53536.0,STARLINK-4053,PAYLOAD,2022-12-11 03:31:49,15.07141382,0.0001167,53.2192,341.1304,312.7114,47.3779,0.00019248,2.643e-05,0.0,0 STARLINK-4053,1 53536U 22101K   22345.14710164  .00002643  00000-0  19248-3 0  9990,2 53536  53.2192 341.1304 0001167 312.7114  47.3779 15.07141382 17485,6923.0769999999975,95.545,545.75,544.134,0.0
53536.0,STARLINK-4053,PAYLOAD,2022-12-11 09:53:44,15.07197143,0.0002318,53.218,339.9413,35.4043,324.7102,5.1719e-05,5.03e-06,0.0,0 STARLINK-4053,1 53536U 22101K   22345.41232446  .00000503  00000-0  51719-4 0  9995,2 53536  53.2180 339.9413 0002318  35.4043 324.7102 15.07197143 17520,6922.906999999997,95.542,546.376,543.1669999999998,0.0
53536.0,STARLINK-4053,PAYLOAD,2022-12-11 11:29:14,15.07196257,0.0002797,53.2181,339.6448,32.2594,327.8568,4.1397e-05,3.46e-06,0.0,0 STARLINK-4053,1 53536U 22101K   22345.47863867  .00000346  00000-0  41397-4 0  9994,2 53536  53.2181 339.6448 0002797  32.2594 327.8568 15.07196257 17539,6922.909000000002,95.542,546.711,542.8380000000002,0.0
